CUTE-1 (CO-55)          
1 27844U 03031E   26176.95866144  .00000278  00000+0  13913-3 0  9993
2 27844  98.6736 185.4073 0010067 153.3060 206.8639 14.24340671192925
CUBESAT XI-IV (CO-57)   
1 27848U 03031J   26176.95152157  .00000236  00000+0  12262-3 0  9999
2 27848  98.6767 185.1059 0009591 171.2745 188.8601 14.23625133192626
CUBESAT XI-V            
1 28895U 05043F   26177.16763213  .00001420  00000+0  23083-3 0  9991
2 28895  98.2992 332.9782 0014260 172.0864 188.0570 14.72654217103077
CUTE-1.7+APD II (CO-65) 
1 32785U 08021C   26177.13150528  .00005311  00000+0  33500-3 0  9997
2 32785  97.8274 158.7363 0008876  11.8125 348.3310 15.09532817986549
CANX-2                  
1 32790U 08021H   26177.19360878  .00003939  00000+0  27677-3 0  9992
2 32790  97.8637 157.1467 0010876  24.7511 335.4235 15.05679693986162
SEEDS II (CO-66)        
1 32791U 08021J   26176.94816340  .00021509  00000+0  67552-3 0  9994
2 32791  97.7517 175.2655 0000427 222.9381 137.1827 15.33033686988632
SWISSCUBE               
1 35932U 09051B   26176.72079970  .00000938  00000+0  19487-3 0  9991
2 35932  98.4029  84.7576 0006581 174.6664 185.4608 14.62496515890403
BEESAT-1                
1 35933U 09051C   26176.73467954  .00000781  00000+0  16647-3 0  9997
2 35933  98.3958  84.3893 0004779 186.3683 173.7458 14.61733092890439
ITUPSAT1                
1 35935U 09051E   26176.73305610  .00000715  00000+0  15762-3 0  9993
2 35935  98.4042  83.5704 0006692 203.3862 156.7034 14.60452303889984
TISAT 1                 
1 36799U 10035E   26176.80493668  .00024751  00000+0  80171-3 0  9997
2 36799  98.0701 124.1198 0002553 153.3468 206.7903 15.32016545869026
AEROCUBE 4.5A           
1 38767U 12048K   26176.90760363  .01044300  62559-3  12854-2 0  9996
2 38767  64.6191 354.7123 0018693 248.7404 111.1768 16.07344692374057
STRAND-1                
1 39090U 13009E   26176.96758522  .00000274  00000+0  10651-3 0  9998
2 39090  98.3924 356.9858 0008211 196.9027 163.1888 14.37168122698326
BRITE-AUSTRIA           
1 39091U 13009F   26176.98425794  .00000156  00000+0  67554-4 0  9997
2 39091  98.3998 356.2023 0009570 207.8221 152.2455 14.36545238698316
NEE-01 PEGASO           
1 39151U 13018B   26176.37138951  .00002452  00000+0  23719-3 0  9998
2 39151  98.1231 320.7925 0013540 133.4455 226.7893 14.93700411711928
POPACS 2                
1 39269U 13055E   26176.89930248  .00017101  00000+0  28728-3 0  9997
2 39269  80.9906 134.2187 0416476 165.8045 195.5318 14.91433941664519
POPACS 3                
1 39270U 13055F   26177.12041125  .00011066  00000+0  26100-3 0  9999
2 39270  81.0000 219.5008 0551208  42.8006 321.4756 14.56278446639854
ZACUBE-1 (TSHEPISOSAT)  
1 39417U 13066B   26177.20569669  .00003428  00000+0  26694-3 0  9992
2 39417  97.8049 139.5889 0042047 216.9401 142.8926 15.01234415682088
WNISAT-1                
1 39423U 13066H   26176.99523734  .00001061  00000+0  20134-3 0  9991
2 39423  97.7210 325.5267 0162508 203.6978 155.6680 14.58078197668018
TRITON-1                
1 39427U 13066M   26177.00713103  .00001845  00000+0  22538-3 0  9999
2 39427  97.8241  86.6133 0088981 204.7337 154.9598 14.81732282675394
GOMX-1                  
1 39430U 13066Q   26177.10607637  .00001851  00000+0  28189-3 0  9993
2 39430  97.6486  17.0060 0129845  49.2490 311.9902 14.69488396671223
CUBEBUG-2 (LO-74)       
1 39440U 13066AA  26176.83815360  .00004524  00000+0  41819-3 0  9992
2 39440  97.8903 125.8528 0057564   0.5259 359.6011 14.93829236678280
NEE-02 KRYSAOR          
1 39441U 13066AB  26176.55526841  .00002568  00000+0  28387-3 0  9996
2 39441  97.8891 115.7100 0067228  43.3544 317.2932 14.86653035677444
FUNCUBE-1 (AO-73)       
1 39444U 13066AE  26177.20421799  .00008222  00000+0  50781-3 0  9994
2 39444  97.8271 148.8384 0036563 170.3279 189.8662 15.09588977681024
UWE-3                   
1 39446U 13066AG  26176.83787144  .00004431  00000+0  38106-3 0  9998
2 39446  97.8708 132.9703 0046808 291.8607  67.7640 14.97092153678878
BRITE-CA1 (TORONTO)     
1 40020U 14033L   26176.93850303  .00000793  00000+0  12688-3 0  9996
2 40020  97.9748 305.7055 0077307 248.4979 110.7974 14.72689124643505
DUCHIFAT-1              
1 40021U 14033M   26176.71541039  .00141113  00000+0  13462-2 0  9998
2 40021  98.0450 237.0839 0001518 101.6443 258.4986 15.66313669657085
NANOSATC-BR1            
1 40024U 14033Q   26177.02544975  .00019699  00000+0  64467-3 0  9993
2 40024  98.0722 210.1973 0005106 141.8822 218.2780 15.31726656655333
QB50P1                  
1 40025U 14033R   26176.98118250  .00009982  00000+0  48855-3 0  9998
2 40025  98.0964 188.7440 0008708 184.1181 175.9981 15.18384896654365
QB50P2                  
1 40032U 14033Y   26176.94932116  .00008276  00000+0  44333-3 0  9999
2 40032  98.0752 174.3752 0008767 137.2704 222.9209 15.15264211653999
PERSEUS-M2              
1 40037U 14033AD  26177.16254050  .00001927  00000+0  17921-3 0  9992
2 40037  97.9972 127.8856 0009952 271.5685  88.4395 14.95541428652121
